CCSDS_OMM_VERS = 2.0
CREATION_DATE  = 
ORIGINATOR     = 

OBJECT_NAME    = STARLINK-34616
OBJECT_ID      = 2025-253B
CENTER_NAME    = EARTH
REF_FRAME      = TEME
TIME_SYSTEM    = UTC
MEAN_ELEMENT_THEORY = SGP/SGP4

EPOCH          = 2025-11-13T18:00:02.999808
MEAN_MOTION    = 15.95178498
ECCENTRICITY   = .0001979
INCLINATION    = 42.9974
RA_OF_ASC_NODE = 157.1601
ARG_OF_PERICENTER = 270.3388
MEAN_ANOMALY   = 318.1970

EPHEMERIS_TYPE = 0
CLASSIFICATION_TYPE = U
NORAD_CAT_ID   = 66320
ELEMENT_SET_NO = 999
REV_AT_EPOCH   = 247
BSTAR          = -.36825503E-2
MEAN_MOTION_DOT = -.1494677E-1
MEAN_MOTION_DDOT = .65051796E-3

CCSDS_OMM_VERS = 2.0
CREATION_DATE  = 
ORIGINATOR     = 

OBJECT_NAME    = STARLINK-34615
OBJECT_ID      = 2025-253C
CENTER_NAME    = EARTH
REF_FRAME      = TEME
TIME_SYSTEM    = UTC
MEAN_ELEMENT_THEORY = SGP/SGP4

EPOCH          = 2025-11-13T18:00:02.999808
MEAN_MOTION    = 15.95266561
ECCENTRICITY   = .00018711
INCLINATION    = 42.9975
RA_OF_ASC_NODE = 157.1555
ARG_OF_PERICENTER = 266.1642
MEAN_ANOMALY   = 324.3557

EPHEMERIS_TYPE = 0
CLASSIFICATION_TYPE = U
NORAD_CAT_ID   = 66321
ELEMENT_SET_NO = 999
REV_AT_EPOCH   = 231
BSTAR          = -.36835411E-2
MEAN_MOTION_DOT = -.150209E-1
MEAN_MOTION_DDOT = .65704171E-3

CCSDS_OMM_VERS = 2.0
CREATION_DATE  = 
ORIGINATOR     = 

OBJECT_NAME    = STARLINK-35292
OBJECT_ID      = 2025-253D
CENTER_NAME    = EARTH
REF_FRAME      = TEME
TIME_SYSTEM    = UTC
MEAN_ELEMENT_THEORY = SGP/SGP4

EPOCH          = 2025-11-13T18:00:02.999808
MEAN_MOTION    = 15.95628994
ECCENTRICITY   = .00018883
INCLINATION    = 42.9976
RA_OF_ASC_NODE = 157.1291
ARG_OF_PERICENTER = 266.8050
MEAN_ANOMALY   = 334.2090

EPHEMERIS_TYPE = 0
CLASSIFICATION_TYPE = U
NORAD_CAT_ID   = 66322
ELEMENT_SET_NO = 999
REV_AT_EPOCH   = 226
BSTAR          = -.36955911E-2
MEAN_MOTION_DOT = -.1536472E-1
MEAN_MOTION_DDOT = .68747414E-3

CCSDS_OMM_VERS = 2.0
CREATION_DATE  = 
ORIGINATOR     = 

OBJECT_NAME    = STARLINK-35309
OBJECT_ID      = 2025-253E
CENTER_NAME    = EARTH
REF_FRAME      = TEME
TIME_SYSTEM    = UTC
MEAN_ELEMENT_THEORY = SGP/SGP4

EPOCH          = 2025-11-13T18:00:02.999808
MEAN_MOTION    = 15.95853144
ECCENTRICITY   = .00019499
INCLINATION    = 42.9976
RA_OF_ASC_NODE = 157.1164
ARG_OF_PERICENTER = 265.6630
MEAN_ANOMALY   = 340.6807

EPHEMERIS_TYPE = 0
CLASSIFICATION_TYPE = U
NORAD_CAT_ID   = 66323
ELEMENT_SET_NO = 999
REV_AT_EPOCH   = 226
BSTAR          = -.36973095E-2
MEAN_MOTION_DOT = -.1555818E-1
MEAN_MOTION_DDOT = .70509223E-3

CCSDS_OMM_VERS = 2.0
CREATION_DATE  = 
ORIGINATOR     = 

OBJECT_NAME    = STARLINK-35506
OBJECT_ID      = 2025-253F
CENTER_NAME    = EARTH
REF_FRAME      = TEME
TIME_SYSTEM    = UTC
MEAN_ELEMENT_THEORY = SGP/SGP4

EPOCH          = 2025-11-13T18:00:02.999808
MEAN_MOTION    = 15.95541685
ECCENTRICITY   = .00020858
INCLINATION    = 42.9974
RA_OF_ASC_NODE = 157.1340
ARG_OF_PERICENTER = 269.1541
MEAN_ANOMALY   = 329.8636

EPHEMERIS_TYPE = 0
CLASSIFICATION_TYPE = U
NORAD_CAT_ID   = 66324
ELEMENT_SET_NO = 999
REV_AT_EPOCH   = 236
BSTAR          = -.36993945E-2
MEAN_MOTION_DOT = -.1530913E-1
MEAN_MOTION_DDOT = .68229996E-3

CCSDS_OMM_VERS = 2.0
CREATION_DATE  = 
ORIGINATOR     = 

OBJECT_NAME    = STARLINK-35504
OBJECT_ID      = 2025-253G
CENTER_NAME    = EARTH
REF_FRAME      = TEME
TIME_SYSTEM    = UTC
MEAN_ELEMENT_THEORY = SGP/SGP4

EPOCH          = 2025-11-13T18:00:02.999808
MEAN_MOTION    = 15.95712229
ECCENTRICITY   = .00019002
INCLINATION    = 42.9977
RA_OF_ASC_NODE = 157.1248
ARG_OF_PERICENTER = 268.0454
MEAN_ANOMALY   = 334.8389

EPHEMERIS_TYPE = 0
CLASSIFICATION_TYPE = U
NORAD_CAT_ID   = 66325
ELEMENT_SET_NO = 999
REV_AT_EPOCH   = 226
BSTAR          = -.36948906E-2
MEAN_MOTION_DOT = -.1543066E-1
MEAN_MOTION_DDOT = .69349804E-3

CCSDS_OMM_VERS = 2.0
CREATION_DATE  = 
ORIGINATOR     = 

OBJECT_NAME    = STARLINK-35479
OBJECT_ID      = 2025-253H
CENTER_NAME    = EARTH
REF_FRAME      = TEME
TIME_SYSTEM    = UTC
MEAN_ELEMENT_THEORY = SGP/SGP4

EPOCH          = 2025-11-13T18:00:02.999808
MEAN_MOTION    = 15.95915303
ECCENTRICITY   = .00018652
INCLINATION    = 42.9973
RA_OF_ASC_NODE = 157.1120
ARG_OF_PERICENTER = 266.8606
MEAN_ANOMALY   = 340.9360

EPHEMERIS_TYPE = 0
CLASSIFICATION_TYPE = U
NORAD_CAT_ID   = 66326
ELEMENT_SET_NO = 999
REV_AT_EPOCH   = 236
BSTAR          = -.36850526E-2
MEAN_MOTION_DOT = -.1555894E-1
MEAN_MOTION_DDOT = .70560343E-3

CCSDS_OMM_VERS = 2.0
CREATION_DATE  = 
ORIGINATOR     = 

OBJECT_NAME    = STARLINK-35507
OBJECT_ID      = 2025-253J
CENTER_NAME    = EARTH
REF_FRAME      = TEME
TIME_SYSTEM    = UTC
MEAN_ELEMENT_THEORY = SGP/SGP4

EPOCH          = 2025-11-13T18:00:02.999808
MEAN_MOTION    = 15.95433318
ECCENTRICITY   = .0002048
INCLINATION    = 42.9979
RA_OF_ASC_NODE = 157.1448
ARG_OF_PERICENTER = 269.3094
MEAN_ANOMALY   = 325.5693

EPHEMERIS_TYPE = 0
CLASSIFICATION_TYPE = U
NORAD_CAT_ID   = 66327
ELEMENT_SET_NO = 999
REV_AT_EPOCH   = 236
BSTAR          = -.36803869E-2
MEAN_MOTION_DOT = -.1514316E-1
MEAN_MOTION_DDOT = .66802886E-3

CCSDS_OMM_VERS = 2.0
CREATION_DATE  = 
ORIGINATOR     = 

OBJECT_NAME    = STARLINK-35460
OBJECT_ID      = 2025-253K
CENTER_NAME    = EARTH
REF_FRAME      = TEME
TIME_SYSTEM    = UTC
MEAN_ELEMENT_THEORY = SGP/SGP4

EPOCH          = 2025-11-13T18:00:02.999808
MEAN_MOTION    = 15.96120521
ECCENTRICITY   = .00020375
INCLINATION    = 42.9974
RA_OF_ASC_NODE = 157.0993
ARG_OF_PERICENTER = 265.6474
MEAN_ANOMALY   = 346.8237

EPHEMERIS_TYPE = 0
CLASSIFICATION_TYPE = U
NORAD_CAT_ID   = 66328
ELEMENT_SET_NO = 999
REV_AT_EPOCH   = 236
BSTAR          = -.36523739E-2
MEAN_MOTION_DOT = -.1559477E-1
MEAN_MOTION_DDOT = .71008713E-3

CCSDS_OMM_VERS = 2.0
CREATION_DATE  = 
ORIGINATOR     = 

OBJECT_NAME    = STARLINK-35505
OBJECT_ID      = 2025-253L
CENTER_NAME    = EARTH
REF_FRAME      = TEME
TIME_SYSTEM    = UTC
MEAN_ELEMENT_THEORY = SGP/SGP4

EPOCH          = 2025-11-13T18:00:02.999808
MEAN_MOTION    = 15.95374808
ECCENTRICITY   = .00017304
INCLINATION    = 42.9979
RA_OF_ASC_NODE = 157.1499
ARG_OF_PERICENTER = 266.4152
MEAN_ANOMALY   = 326.6606

EPHEMERIS_TYPE = 0
CLASSIFICATION_TYPE = U
NORAD_CAT_ID   = 66329
ELEMENT_SET_NO = 999
REV_AT_EPOCH   = 226
BSTAR          = -.36889254E-2
MEAN_MOTION_DOT = -.1512948E-1
MEAN_MOTION_DDOT = .66652564E-3

CCSDS_OMM_VERS = 2.0
CREATION_DATE  = 
ORIGINATOR     = 

OBJECT_NAME    = STARLINK-35512
OBJECT_ID      = 2025-253M
CENTER_NAME    = EARTH
REF_FRAME      = TEME
TIME_SYSTEM    = UTC
MEAN_ELEMENT_THEORY = SGP/SGP4

EPOCH          = 2025-11-13T18:00:02.999808
MEAN_MOTION    = 15.95785281
ECCENTRICITY   = .00019227
INCLINATION    = 42.9976
RA_OF_ASC_NODE = 157.1211
ARG_OF_PERICENTER = 266.4865
MEAN_ANOMALY   = 337.8777

EPHEMERIS_TYPE = 0
CLASSIFICATION_TYPE = U
NORAD_CAT_ID   = 66330
ELEMENT_SET_NO = 999
REV_AT_EPOCH   = 226
BSTAR          = -.37040865E-2
MEAN_MOTION_DOT = -.1552948E-1
MEAN_MOTION_DDOT = .70221432E-3

CCSDS_OMM_VERS = 2.0
CREATION_DATE  = 
ORIGINATOR     = 

OBJECT_NAME    = STARLINK-35257
OBJECT_ID      = 2025-253N
CENTER_NAME    = EARTH
REF_FRAME      = TEME
TIME_SYSTEM    = UTC
MEAN_ELEMENT_THEORY = SGP/SGP4

EPOCH          = 2025-11-13T18:00:02.999808
MEAN_MOTION    = 15.96345000
ECCENTRICITY   = .00021432
INCLINATION    = 42.9977
RA_OF_ASC_NODE = 157.0876
ARG_OF_PERICENTER = 268.7784
MEAN_ANOMALY   = 348.6156

EPHEMERIS_TYPE = 0
CLASSIFICATION_TYPE = U
NORAD_CAT_ID   = 66331
ELEMENT_SET_NO = 999
REV_AT_EPOCH   = 199
BSTAR          = -.36344151E-2
MEAN_MOTION_DOT = -.1570881E-1
MEAN_MOTION_DDOT = .72133748E-3

