STARLINK-34616          
1 66320U 25253B   25317.75003472 -.01494677  65052-3 -36826-2 0  9998
2 66320  42.9974 157.1601 0001979 270.3388 318.1970 15.95178498  2471
STARLINK-34615          
1 66321U 25253C   25317.75003472 -.01502090  65704-3 -36835-2 0  9992
2 66321  42.9975 157.1555 0001871 266.1642 324.3557 15.95266561  2310
STARLINK-35292          
1 66322U 25253D   25317.75003472 -.01536472  68747-3 -36956-2 0  9998
2 66322  42.9976 157.1291 0001888 266.8050 334.2090 15.95628994  2265
STARLINK-35309          
1 66323U 25253E   25317.75003472 -.01555818  70509-3 -36973-2 0  9992
2 66323  42.9976 157.1164 0001949 265.6630 340.6807 15.95853144  2268
STARLINK-35506          
1 66324U 25253F   25317.75003472 -.01530913  68230-3 -36994-2 0  9993
2 66324  42.9974 157.1340 0002085 269.1541 329.8636 15.95541685  2369
STARLINK-35504          
1 66325U 25253G   25317.75003472 -.01543066  69350-3 -36949-2 0  9991
2 66325  42.9977 157.1248 0001900 268.0454 334.8389 15.95712229  2260
STARLINK-35479          
1 66326U 25253H   25317.75003472 -.01555894  70560-3 -36851-2 0  9991
2 66326  42.9973 157.1120 0001865 266.8606 340.9360 15.95915303  2367
STARLINK-35507          
1 66327U 25253J   25317.75003472 -.01514316  66803-3 -36804-2 0  9999
2 66327  42.9979 157.1448 0002048 269.3094 325.5693 15.95433318  2369
STARLINK-35460          
1 66328U 25253K   25317.75003472 -.01559477  71009-3 -36524-2 0  9990
2 66328  42.9974 157.0993 0002037 265.6474 346.8237 15.96120521  2368
STARLINK-35505          
1 66329U 25253L   25317.75003472 -.01512948  66653-3 -36889-2 0  9996
2 66329  42.9979 157.1499 0001730 266.4152 326.6606 15.95374808  2260
STARLINK-35512          
1 66330U 25253M   25317.75003472 -.01552948  70221-3 -37041-2 0  9999
2 66330  42.9976 157.1211 0001922 266.4865 337.8777 15.95785281  2269
STARLINK-35257          
1 66331U 25253N   25317.75003472 -.01570881  72134-3 -36344-2 0  9996
2 66331  42.9977 157.0876 0002143 268.7784 348.6156 15.96345000  1990
